[{"OBJECT_NAME":"GEESAT-5 06","OBJECT_ID":"2025-201F","EPOCH":"2026-03-09T12:12:25.250112","MEAN_MOTION":14.83771772,"ECCENTRICITY":0.00144332,"INCLINATION":49.9906,"RA_OF_ASC_NODE":141.562,"ARG_OF_PERICENTER":298.4848,"MEAN_ANOMALY":61.4637,"EPHEMERIS_TYPE":0,"CLASSIFICATION_TYPE":"U","NORAD_CAT_ID":65555,"ELEMENT_SET_NO":999,"REV_AT_EPOCH":2698,"BSTAR":0.00016353536,"MEAN_MOTION_DOT":1.141e-5,"MEAN_MOTION_DDOT":0},{"OBJECT_NAME":"FENGYUN 1C DEB","OBJECT_ID":"1999-025CRT","EPOCH":"2026-03-08T05:25:55.615296","MEAN_MOTION":14.72591337,"ECCENTRICITY":0.01689255,"INCLINATION":99.0682,"RA_OF_ASC_NODE":62.2268,"ARG_OF_PERICENTER":58.082,"MEAN_ANOMALY":303.669,"EPHEMERIS_TYPE":0,"CLASSIFICATION_TYPE":"U","NORAD_CAT_ID":32125,"ELEMENT_SET_NO":999,"REV_AT_EPOCH":71780,"BSTAR":0.003714293,"MEAN_MOTION_DOT":0.00029682,"MEAN_MOTION_DDOT":0}]
